[{"OBJECT_NAME":"BEIDOU-2 IGSO-1 (C06)","OBJECT_ID":"2010-036A","EPOCH":"2026-04-23T19:55:57.482688","MEAN_MOTION":1.00288096,"ECCENTRICITY":0.00583551,"INCLINATION":54.2917,"RA_OF_ASC_NODE":163.4511,"ARG_OF_PERICENTER":224.0017,"MEAN_ANOMALY":229.7808,"EPHEMERIS_TYPE":0,"CLASSIFICATION_TYPE":"U","NORAD_CAT_ID":36828,"ELEMENT_SET_NO":999,"REV_AT_EPOCH":5755,"BSTAR":0,"MEAN_MOTION_DOT":-1.09e-6,"MEAN_MOTION_DDOT":0},{"OBJECT_NAME":"BEIDOU-2 G4 (C04)","OBJECT_ID":"2010-057A","EPOCH":"2026-04-26T20:40:59.004192","MEAN_MOTION":1.00270072,"ECCENTRICITY":0.00064703,"INCLINATION":3.5219,"RA_OF_ASC_NODE":69.2323,"ARG_OF_PERICENTER":213.2737,"MEAN_ANOMALY":42.525,"EPHEMERIS_TYPE":0,"CLASSIFICATION_TYPE":"U","NORAD_CAT_ID":37210,"ELEMENT_SET_NO":999,"REV_AT_EPOCH":5677,"BSTAR":0,"MEAN_MOTION_DOT":-1.22e-6,"MEAN_MOTION_DDOT":0},{"OBJECT_NAME":"BEIDOU-2 IGSO-2 (C07)","OBJECT_ID":"2010-068A","EPOCH":"2026-04-26T20:54:37.728000","MEAN_MOTION":1.00299784,"ECCENTRICITY":0.00532377,"INCLINATION":47.6441,"RA_OF_ASC_NODE":272.4653,"ARG_OF_PERICENTER":211.5565,"MEAN_ANOMALY":149.1985,"EPHEMERIS_TYPE":0,"CLASSIFICATION_TYPE":"U","NORAD_CAT_ID":37256,"ELEMENT_SET_NO":999,"REV_AT_EPOCH":5628,"BSTAR":0,"MEAN_MOTION_DOT":-2.22e-6,"MEAN_MOTION_DDOT":0},{"OBJECT_NAME":"BEIDOU-2 IGSO-3 (C08)","OBJECT_ID":"2011-013A","EPOCH":"2026-04-24T17:34:48.622080","MEAN_MOTION":1.00280536,"ECCENTRICITY":0.00337019,"INCLINATION":62.3393,"RA_OF_ASC_NODE":40.6572,"ARG_OF_PERICENTER":188.3614,"MEAN_ANOMALY":355.5484,"EPHEMERIS_TYPE":0,"CLASSIFICATION_TYPE":"U","NORAD_CAT_ID":37384,"ELEMENT_SET_NO":999,"REV_AT_EPOCH":5512,"BSTAR":0,"MEAN_MOTION_DOT":-2.01e-6,"MEAN_MOTION_DDOT":0},{"OBJECT_NAME":"BEIDOU-2 IGSO-4 (C09)","OBJECT_ID":"2011-038A","EPOCH":"2026-04-20T22:49:52.538592","MEAN_MOTION":1.0025708,"ECCENTRICITY":0.01583758,"INCLINATION":54.5868,"RA_OF_ASC_NODE":166.1972,"ARG_OF_PERICENTER":231.6843,"MEAN_ANOMALY":245.893,"EPHEMERIS_TYPE":0,"CLASSIFICATION_TYPE":"U","NORAD_CAT_ID":37763,"ELEMENT_SET_NO":999,"REV_AT_EPOCH":5407,"BSTAR":0,"MEAN_MOTION_DOT":-1.5e-7,"MEAN_MOTION_DDOT":0},{"OBJECT_NAME":"BEIDOU-2 IGSO-5 (C10)","OBJECT_ID":"2011-073A","EPOCH":"2026-04-26T21:25:24.262752","MEAN_MOTION":1.00260215,"ECCENTRICITY":0.01106297,"INCLINATION":47.7736,"RA_OF_ASC_NODE":272.1759,"ARG_OF_PERICENTER":220.6447,"MEAN_ANOMALY":136.9806,"EPHEMERIS_TYPE":0,"CLASSIFICATION_TYPE":"U","NORAD_CAT_ID":37948,"ELEMENT_SET_NO":999,"REV_AT_EPOCH":5261,"BSTAR":0,"MEAN_MOTION_DOT":-2.15e-6,"MEAN_MOTION_DDOT":0},{"OBJECT_NAME":"BEIDOU-2 G5 (C05)","OBJECT_ID":"2012-008A","EPOCH":"2026-04-26T22:24:06.416640","MEAN_MOTION":1.00273179,"ECCENTRICITY":0.00122715,"INCLINATION":3.4483,"RA_OF_ASC_NODE":69.9859,"ARG_OF_PERICENTER":266.067,"MEAN_ANOMALY":273.6426,"EPHEMERIS_TYPE":0,"CLASSIFICATION_TYPE":"U","NORAD_CAT_ID":38091,"ELEMENT_SET_NO":999,"REV_AT_EPOCH":5185,"BSTAR":0,"MEAN_MOTION_DOT":4.8e-7,"MEAN_MOTION_DDOT":0},{"OBJECT_NAME":"BEIDOU-2 M3 (C11)","OBJECT_ID":"2012-018A","EPOCH":"2026-04-26T15:22:42.045888","MEAN_MOTION":1.86229681,"ECCENTRICITY":0.00197161,"INCLINATION":55.8029,"RA_OF_ASC_NODE":306.6119,"ARG_OF_PERICENTER":278.0782,"MEAN_ANOMALY":81.7021,"EPHEMERIS_TYPE":0,"CLASSIFICATION_TYPE":"U","NORAD_CAT_ID":38250,"ELEMENT_SET_NO":999,"REV_AT_EPOCH":9498,"BSTAR":0,"MEAN_MOTION_DOT":-5.7e-7,"MEAN_MOTION_DDOT":0},{"OBJECT_NAME":"BEIDOU-2 M4 (C12)","OBJECT_ID":"2012-018B","EPOCH":"2026-04-26T13:45:05.840064","MEAN_MOTION":1.86229346,"ECCENTRICITY":0.00110177,"INCLINATION":55.7028,"RA_OF_ASC_NODE":305.8322,"ARG_OF_PERICENTER":283.8904,"MEAN_ANOMALY":75.9901,"EPHEMERIS_TYPE":0,"CLASSIFICATION_TYPE":"U","NORAD_CAT_ID":38251,"ELEMENT_SET_NO":999,"REV_AT_EPOCH":9498,"BSTAR":0,"MEAN_MOTION_DOT":-5.7e-7,"MEAN_MOTION_DDOT":0},{"OBJECT_NAME":"BEIDOU-2 M6 (C14)","OBJECT_ID":"2012-050B","EPOCH":"2026-04-25T05:00:54.365184","MEAN_MOTION":1.86230847,"ECCENTRICITY":0.00144897,"INCLINATION":56.5004,"RA_OF_ASC_NODE":64.6451,"ARG_OF_PERICENTER":348.5468,"MEAN_ANOMALY":11.3943,"EPHEMERIS_TYPE":0,"CLASSIFICATION_TYPE":"U","NORAD_CAT_ID":38775,"ELEMENT_SET_NO":999,"REV_AT_EPOCH":9232,"BSTAR":0,"MEAN_MOTION_DOT":-2.7e-7,"MEAN_MOTION_DDOT":0},{"OBJECT_NAME":"BEIDOU-2 G6 (C02)","OBJECT_ID":"2012-059A","EPOCH":"2026-04-26T22:31:20.722656","MEAN_MOTION":1.00274556,"ECCENTRICITY":0.00105753,"INCLINATION":4.2942,"RA_OF_ASC_NODE":74.0532,"ARG_OF_PERICENTER":314.2628,"MEAN_ANOMALY":248.4057,"EPHEMERIS_TYPE":0,"CLASSIFICATION_TYPE":"U","NORAD_CAT_ID":38953,"ELEMENT_SET_NO":999,"REV_AT_EPOCH":4939,"BSTAR":0,"MEAN_MOTION_DOT":-1.83e-6,"MEAN_MOTION_DDOT":0},{"OBJECT_NAME":"BEIDOU-3S IGSO-1S (C31)","OBJECT_ID":"2015-019A","EPOCH":"2026-04-22T23:45:28.549728","MEAN_MOTION":1.002611,"ECCENTRICITY":0.0037208,"INCLINATION":49.2998,"RA_OF_ASC_NODE":296.1212,"ARG_OF_PERICENTER":189.9963,"MEAN_ANOMALY":176.4804,"EPHEMERIS_TYPE":0,"CLASSIFICATION_TYPE":"U","NORAD_CAT_ID":40549,"ELEMENT_SET_NO":999,"REV_AT_EPOCH":4052,"BSTAR":0,"MEAN_MOTION_DOT":-1.71e-6,"MEAN_MOTION_DDOT":0},{"OBJECT_NAME":"BEIDOU-3S M2S (C58)","OBJECT_ID":"2015-037A","EPOCH":"2026-04-26T05:44:30.499296","MEAN_MOTION":1.86231742,"ECCENTRICITY":0.00074014,"INCLINATION":54.9173,"RA_OF_ASC_NODE":303.8339,"ARG_OF_PERICENTER":271.2461,"MEAN_ANOMALY":88.6693,"EPHEMERIS_TYPE":0,"CLASSIFICATION_TYPE":"U","NORAD_CAT_ID":40748,"ELEMENT_SET_NO":999,"REV_AT_EPOCH":7315,"BSTAR":0,"MEAN_MOTION_DOT":-5.5e-7,"MEAN_MOTION_DDOT":0},{"OBJECT_NAME":"BEIDOU-3S M1S (C57)","OBJECT_ID":"2015-037B","EPOCH":"2026-04-25T09:06:05.082336","MEAN_MOTION":1.86254812,"ECCENTRICITY":0.00044572,"INCLINATION":54.9149,"RA_OF_ASC_NODE":303.8513,"ARG_OF_PERICENTER":51.4305,"MEAN_ANOMALY":308.6107,"EPHEMERIS_TYPE":0,"CLASSIFICATION_TYPE":"U","NORAD_CAT_ID":40749,"ELEMENT_SET_NO":999,"REV_AT_EPOCH":7314,"BSTAR":0,"MEAN_MOTION_DOT":-4.9e-7,"MEAN_MOTION_DDOT":0},{"OBJECT_NAME":"BEIDOU-3S IGSO-2S (C56)","OBJECT_ID":"2015-053A","EPOCH":"2026-04-26T20:32:21.837984","MEAN_MOTION":1.0027161,"ECCENTRICITY":0.00636527,"INCLINATION":49.3035,"RA_OF_ASC_NODE":259.3896,"ARG_OF_PERICENTER":190.0802,"MEAN_ANOMALY":170.2721,"EPHEMERIS_TYPE":0,"CLASSIFICATION_TYPE":"U","NORAD_CAT_ID":40938,"ELEMENT_SET_NO":999,"REV_AT_EPOCH":3884,"BSTAR":0,"MEAN_MOTION_DOT":-1.77e-6,"MEAN_MOTION_DDOT":0},{"OBJECT_NAME":"BEIDOU-2 IGSO-6 (C13)","OBJECT_ID":"2016-021A","EPOCH":"2026-04-22T20:32:03.319008","MEAN_MOTION":1.00270364,"ECCENTRICITY":0.00558668,"INCLINATION":60.1522,"RA_OF_ASC_NODE":38.5901,"ARG_OF_PERICENTER":232.0601,"MEAN_ANOMALY":343.5038,"EPHEMERIS_TYPE":0,"CLASSIFICATION_TYPE":"U","NORAD_CAT_ID":41434,"ELEMENT_SET_NO":999,"REV_AT_EPOCH":3692,"BSTAR":0,"MEAN_MOTION_DOT":-1.69e-6,"MEAN_MOTION_DDOT":0},{"OBJECT_NAME":"BEIDOU-2 G7 (C03)","OBJECT_ID":"2016-037A","EPOCH":"2026-04-26T22:22:56.659872","MEAN_MOTION":1.00265175,"ECCENTRICITY":0.00077353,"INCLINATION":1.5954,"RA_OF_ASC_NODE":68.8178,"ARG_OF_PERICENTER":354.5704,"MEAN_ANOMALY":237.7044,"EPHEMERIS_TYPE":0,"CLASSIFICATION_TYPE":"U","NORAD_CAT_ID":41586,"ELEMENT_SET_NO":999,"REV_AT_EPOCH":637,"BSTAR":0,"MEAN_MOTION_DOT":-3.62e-6,"MEAN_MOTION_DDOT":0}]
